ATLAS CENTAUR R/B       
1 06155U 72065B   25328.68318404  .00001374  00000+0  19155-3 0  9999
2 06155  35.0005 200.9654 0034169 208.2008 151.6842 14.77340583825724
SL-8 R/B                
1 08459U 75112B   25328.67476655  .00000300  00000+0  10756-3 0  9992
2 08459  74.0604 212.0844 0016164 325.9207  34.0907 14.38128548616770
SL-3 R/B                
1 10114U 77057B   25328.72319904  .00013638  00000+0  31794-3 0  9995
2 10114  97.5686 131.3588 0006722 308.7903  51.2742 15.42349824652136
SEASAT 1                
1 10967U 78064A   25328.69608679  .00000470  00000+0  17007-3 0  9997
2 10967 108.0087 265.1826 0002050 251.9478 108.1445 14.46030941491337
SL-14 R/B               
1 11267U 79011B   25328.67730013  .00000683  00000+0  65151-4 0  9990
2 11267  82.5250 196.1730 0017384  51.6898 308.5881 14.91738438513121
SL-8 R/B                
1 11574U 79089B   25328.59379102  .00000345  00000+0  11232-3 0  9990
2 11574  74.0683 285.5631 0014650 127.3690 232.8803 14.42264843420956
SL-14 R/B               
1 11672U 80005B   25328.68851013  .00000760  00000+0  74618-4 0  9994
2 11672  82.5162  46.8164 0016581 149.1072 211.1126 14.90758625460840
SL-8 R/B                
1 12139U 81003B   25328.60547846  .00023369  00000+0  63109-3 0  9992
2 12139  82.9308  26.8839 0281819 182.9570 177.0012 15.06163438298830
SL-3 R/B                
1 12465U 81046B   25328.68833029  .00012436  00000+0  31819-3 0  9996
2 12465  81.2339  55.5211 0020136  27.0372 333.1914 15.39075725422262
SL-3 R/B                
1 12904U 81103B   25328.75506642  .00007575  00000+0  35084-3 0  9990
2 12904  81.1593 336.4136 0011514 283.4204  76.5742 15.19915934957285
SL-3 R/B                
1 13068U 82013B   25328.68312507  .00005471  00000+0  24498-3 0  9990
2 13068  81.1746 283.7413 0022985 169.5080 190.6636 15.20848012388382
SL-3 R/B                
1 13154U 82039B   25328.74100744  .00003107  00000+0  19103-3 0  9990
2 13154  81.1754 336.7981 0031149 312.4903  47.3690 15.09370617365809
