CCSDS_OMM_VERS = 2.0
CREATION_DATE  = 
ORIGINATOR     = 

OBJECT_NAME    = ATLAS CENTAUR R/B
OBJECT_ID      = 1972-065B
CENTER_NAME    = EARTH
REF_FRAME      = TEME
TIME_SYSTEM    = UTC
MEAN_ELEMENT_THEORY = SGP/SGP4

EPOCH          = 2025-11-24T16:23:47.101056
MEAN_MOTION    = 14.77340583
ECCENTRICITY   = .0034169
INCLINATION    = 35.0005
RA_OF_ASC_NODE = 200.9654
ARG_OF_PERICENTER = 208.2008
MEAN_ANOMALY   = 151.6842

EPHEMERIS_TYPE = 0
CLASSIFICATION_TYPE = U
NORAD_CAT_ID   = 6155
ELEMENT_SET_NO = 999
REV_AT_EPOCH   = 82572
BSTAR          = .19155E-3
MEAN_MOTION_DOT = .1374E-4
MEAN_MOTION_DDOT = 0

CCSDS_OMM_VERS = 2.0
CREATION_DATE  = 
ORIGINATOR     = 

OBJECT_NAME    = SL-8 R/B
OBJECT_ID      = 1975-112B
CENTER_NAME    = EARTH
REF_FRAME      = TEME
TIME_SYSTEM    = UTC
MEAN_ELEMENT_THEORY = SGP/SGP4

EPOCH          = 2025-11-24T16:11:39.829920
MEAN_MOTION    = 14.38128548
ECCENTRICITY   = .0016164
INCLINATION    = 74.0604
RA_OF_ASC_NODE = 212.0844
ARG_OF_PERICENTER = 325.9207
MEAN_ANOMALY   = 34.0907

EPHEMERIS_TYPE = 0
CLASSIFICATION_TYPE = U
NORAD_CAT_ID   = 8459
ELEMENT_SET_NO = 999
REV_AT_EPOCH   = 61677
BSTAR          = .10756E-3
MEAN_MOTION_DOT = .3E-5
MEAN_MOTION_DDOT = 0

CCSDS_OMM_VERS = 2.0
CREATION_DATE  = 
ORIGINATOR     = 

OBJECT_NAME    = SL-3 R/B
OBJECT_ID      = 1977-057B
CENTER_NAME    = EARTH
REF_FRAME      = TEME
TIME_SYSTEM    = UTC
MEAN_ELEMENT_THEORY = SGP/SGP4

EPOCH          = 2025-11-24T17:21:24.397056
MEAN_MOTION    = 15.42349824
ECCENTRICITY   = .0006722
INCLINATION    = 97.5686
RA_OF_ASC_NODE = 131.3588
ARG_OF_PERICENTER = 308.7903
MEAN_ANOMALY   = 51.2742

EPHEMERIS_TYPE = 0
CLASSIFICATION_TYPE = U
NORAD_CAT_ID   = 10114
ELEMENT_SET_NO = 999
REV_AT_EPOCH   = 65213
BSTAR          = .31794E-3
MEAN_MOTION_DOT = .13638E-3
MEAN_MOTION_DDOT = 0

CCSDS_OMM_VERS = 2.0
CREATION_DATE  = 
ORIGINATOR     = 

OBJECT_NAME    = SEASAT 1
OBJECT_ID      = 1978-064A
CENTER_NAME    = EARTH
REF_FRAME      = TEME
TIME_SYSTEM    = UTC
MEAN_ELEMENT_THEORY = SGP/SGP4

EPOCH          = 2025-11-24T16:42:21.898656
MEAN_MOTION    = 14.46030941
ECCENTRICITY   = .000205
INCLINATION    = 108.0087
RA_OF_ASC_NODE = 265.1826
ARG_OF_PERICENTER = 251.9478
MEAN_ANOMALY   = 108.1445

EPHEMERIS_TYPE = 0
CLASSIFICATION_TYPE = U
NORAD_CAT_ID   = 10967
ELEMENT_SET_NO = 999
REV_AT_EPOCH   = 49133
BSTAR          = .17007E-3
MEAN_MOTION_DOT = .47E-5
MEAN_MOTION_DDOT = 0

CCSDS_OMM_VERS = 2.0
CREATION_DATE  = 
ORIGINATOR     = 

OBJECT_NAME    = SL-14 R/B
OBJECT_ID      = 1979-011B
CENTER_NAME    = EARTH
REF_FRAME      = TEME
TIME_SYSTEM    = UTC
MEAN_ELEMENT_THEORY = SGP/SGP4

EPOCH          = 2025-11-24T16:15:18.731232
MEAN_MOTION    = 14.91738438
ECCENTRICITY   = .0017384
INCLINATION    = 82.5250
RA_OF_ASC_NODE = 196.1730
ARG_OF_PERICENTER = 51.6898
MEAN_ANOMALY   = 308.5881

EPHEMERIS_TYPE = 0
CLASSIFICATION_TYPE = U
NORAD_CAT_ID   = 11267
ELEMENT_SET_NO = 999
REV_AT_EPOCH   = 51312
BSTAR          = .65151E-4
MEAN_MOTION_DOT = .683E-5
MEAN_MOTION_DDOT = 0

CCSDS_OMM_VERS = 2.0
CREATION_DATE  = 
ORIGINATOR     = 

OBJECT_NAME    = SL-8 R/B
OBJECT_ID      = 1979-089B
CENTER_NAME    = EARTH
REF_FRAME      = TEME
TIME_SYSTEM    = UTC
MEAN_ELEMENT_THEORY = SGP/SGP4

EPOCH          = 2025-11-24T14:15:03.544128
MEAN_MOTION    = 14.42264843
ECCENTRICITY   = .001465
INCLINATION    = 74.0683
RA_OF_ASC_NODE = 285.5631
ARG_OF_PERICENTER = 127.3690
MEAN_ANOMALY   = 232.8803

EPHEMERIS_TYPE = 0
CLASSIFICATION_TYPE = U
NORAD_CAT_ID   = 11574
ELEMENT_SET_NO = 999
REV_AT_EPOCH   = 42095
BSTAR          = .11232E-3
MEAN_MOTION_DOT = .345E-5
MEAN_MOTION_DDOT = 0

CCSDS_OMM_VERS = 2.0
CREATION_DATE  = 
ORIGINATOR     = 

OBJECT_NAME    = SL-14 R/B
OBJECT_ID      = 1980-005B
CENTER_NAME    = EARTH
REF_FRAME      = TEME
TIME_SYSTEM    = UTC
MEAN_ELEMENT_THEORY = SGP/SGP4

EPOCH          = 2025-11-24T16:31:27.275232
MEAN_MOTION    = 14.90758625
ECCENTRICITY   = .0016581
INCLINATION    = 82.5162
RA_OF_ASC_NODE = 46.8164
ARG_OF_PERICENTER = 149.1072
MEAN_ANOMALY   = 211.1126

EPHEMERIS_TYPE = 0
CLASSIFICATION_TYPE = U
NORAD_CAT_ID   = 11672
ELEMENT_SET_NO = 999
REV_AT_EPOCH   = 46084
BSTAR          = .74618E-4
MEAN_MOTION_DOT = .76E-5
MEAN_MOTION_DDOT = 0

CCSDS_OMM_VERS = 2.0
CREATION_DATE  = 
ORIGINATOR     = 

OBJECT_NAME    = SL-8 R/B
OBJECT_ID      = 1981-003B
CENTER_NAME    = EARTH
REF_FRAME      = TEME
TIME_SYSTEM    = UTC
MEAN_ELEMENT_THEORY = SGP/SGP4

EPOCH          = 2025-11-24T14:31:53.338944
MEAN_MOTION    = 15.06163438
ECCENTRICITY   = .0281819
INCLINATION    = 82.9308
RA_OF_ASC_NODE = 26.8839
ARG_OF_PERICENTER = 182.9570
MEAN_ANOMALY   = 177.0012

EPHEMERIS_TYPE = 0
CLASSIFICATION_TYPE = U
NORAD_CAT_ID   = 12139
ELEMENT_SET_NO = 999
REV_AT_EPOCH   = 29883
BSTAR          = .63109E-3
MEAN_MOTION_DOT = .23369E-3
MEAN_MOTION_DDOT = 0

CCSDS_OMM_VERS = 2.0
CREATION_DATE  = 
ORIGINATOR     = 

OBJECT_NAME    = SL-3 R/B
OBJECT_ID      = 1981-046B
CENTER_NAME    = EARTH
REF_FRAME      = TEME
TIME_SYSTEM    = UTC
MEAN_ELEMENT_THEORY = SGP/SGP4

EPOCH          = 2025-11-24T16:31:11.737056
MEAN_MOTION    = 15.39075725
ECCENTRICITY   = .0020136
INCLINATION    = 81.2339
RA_OF_ASC_NODE = 55.5211
ARG_OF_PERICENTER = 27.0372
MEAN_ANOMALY   = 333.1914

EPHEMERIS_TYPE = 0
CLASSIFICATION_TYPE = U
NORAD_CAT_ID   = 12465
ELEMENT_SET_NO = 999
REV_AT_EPOCH   = 42226
BSTAR          = .31819E-3
MEAN_MOTION_DOT = .12436E-3
MEAN_MOTION_DDOT = 0

CCSDS_OMM_VERS = 2.0
CREATION_DATE  = 
ORIGINATOR     = 

OBJECT_NAME    = SL-3 R/B
OBJECT_ID      = 1981-103B
CENTER_NAME    = EARTH
REF_FRAME      = TEME
TIME_SYSTEM    = UTC
MEAN_ELEMENT_THEORY = SGP/SGP4

EPOCH          = 2025-11-24T18:07:17.738688
MEAN_MOTION    = 15.19915934
ECCENTRICITY   = .0011514
INCLINATION    = 81.1593
RA_OF_ASC_NODE = 336.4136
ARG_OF_PERICENTER = 283.4204
MEAN_ANOMALY   = 76.5742

EPHEMERIS_TYPE = 0
CLASSIFICATION_TYPE = U
NORAD_CAT_ID   = 12904
ELEMENT_SET_NO = 999
REV_AT_EPOCH   = 95728
BSTAR          = .35084E-3
MEAN_MOTION_DOT = .7575E-4
MEAN_MOTION_DDOT = 0

CCSDS_OMM_VERS = 2.0
CREATION_DATE  = 
ORIGINATOR     = 

OBJECT_NAME    = SL-3 R/B
OBJECT_ID      = 1982-013B
CENTER_NAME    = EARTH
REF_FRAME      = TEME
TIME_SYSTEM    = UTC
MEAN_ELEMENT_THEORY = SGP/SGP4

EPOCH          = 2025-11-24T16:23:42.006048
MEAN_MOTION    = 15.20848012
ECCENTRICITY   = .0022985
INCLINATION    = 81.1746
RA_OF_ASC_NODE = 283.7413
ARG_OF_PERICENTER = 169.5080
MEAN_ANOMALY   = 190.6636

EPHEMERIS_TYPE = 0
CLASSIFICATION_TYPE = U
NORAD_CAT_ID   = 13068
ELEMENT_SET_NO = 999
REV_AT_EPOCH   = 38838
BSTAR          = .24498E-3
MEAN_MOTION_DOT = .5471E-4
MEAN_MOTION_DDOT = 0

CCSDS_OMM_VERS = 2.0
CREATION_DATE  = 
ORIGINATOR     = 

OBJECT_NAME    = SL-3 R/B
OBJECT_ID      = 1982-039B
CENTER_NAME    = EARTH
REF_FRAME      = TEME
TIME_SYSTEM    = UTC
MEAN_ELEMENT_THEORY = SGP/SGP4

EPOCH          = 2025-11-24T17:47:03.042816
MEAN_MOTION    = 15.09370617
ECCENTRICITY   = .0031149
INCLINATION    = 81.1754
RA_OF_ASC_NODE = 336.7981
ARG_OF_PERICENTER = 312.4903
MEAN_ANOMALY   = 47.3690

EPHEMERIS_TYPE = 0
CLASSIFICATION_TYPE = U
NORAD_CAT_ID   = 13154
ELEMENT_SET_NO = 999
REV_AT_EPOCH   = 36580
BSTAR          = .19103E-3
MEAN_MOTION_DOT = .3107E-4
MEAN_MOTION_DDOT = 0

